0 FENGYUN 1C DEB
1 31384U 99025BSQ 13286.12638164  .00001729  00000-0  90125-3 0   467
2 31384 098.4743 342.1060 0526759 080.8464 312.2180 13.61687332323438
0 FENGYUN 1C DEB
1 31384U 99025BSQ 13287.68784856  .00001962  00000-0  10205-2 0   479
2 31384 098.4737 343.4697 0526696 076.7193 046.6520 13.61691184323643
0 FENGYUN 1C DEB
1 31384U 99025BSQ 13291.12284432  .00002200  00000-0  11434-2 0   480
2 31384 098.4726 346.4692 0526337 067.6294 325.4347 13.61708842324110
0 FENGYUN 1C DEB
1 31384U 99025BSQ 13292.61736973  .00002255  00000-0  11720-2 0   496
2 31384 098.4724 347.7743 0526218 063.6768 091.8394 13.61713762324314
0 FENGYUN 1C DEB
1 31384U 99025BSQ 13293.64405440  .00002316  00000-0  12033-2 0   500
2 31384 098.4723 348.6708 0526230 060.9686 084.8209 13.61716386324454
0 FENGYUN 1C DEB
1 31384U 99025BSQ 13295.09033770  .00002501  00000-0  12980-2 0   512
2 31384 098.4720 349.9334 0526207 057.1441 334.7760 13.61720558324658
0 FENGYUN 1C DEB
1 31384U 99025BSQ 13296.12341991  .00002743  00000-0  14225-2 0   527
2 31384 098.4723 350.8354 0526061 054.4086 359.1607 13.61725144324799
